STARLINK-4169           
1 53280U 22086AQ  25214.55385262  .00000210  00000+0  31261-4 0  9995
2 53280  53.2178  42.5351 0001254  98.4555 261.6580 15.08833769168759
STARLINK-4164           
1 53282U 22086AS  25213.10167039 -.00001002  00000+0 -44870-4 0  9999
2 53282  53.2174  94.3775 0001300  93.4813 266.6328 15.08838092167899
STARLINK-4175           
1 53283U 22086AT  25212.89190713 -.00001933  00000+0 -10338-3 0  9994
2 53283  53.2176  95.3196 0001552  91.7919 268.3251 15.08850495167690
STARLINK-4173           
1 53285U 22086AV  25214.07318963  .00000489  00000+0  48821-4 0  9999
2 53285  53.2171  90.0165 0001551  94.6175 265.4994 15.08838674168036
STARLINK-4165           
1 53286U 22086AW  25214.05107624  .00000068  00000+0  22379-4 0  9991
2 53286  53.2178  89.8121 0001349 103.3127 256.8015 15.08837138168034
STARLINK-4107           
1 53287U 22086AX  25213.07222848 -.00001039  00000+0 -47174-4 0  9990
2 53287  53.2189  94.5122 0001451 101.9844 258.1311 15.08841295167723
STARLINK-4162           
1 53288U 22086AY  25214.07687120 -.00000078  00000+0  13192-4 0  9994
2 53288  53.2179  89.9999 0001381  95.8234 264.2915 15.08836722168031
STARLINK-4176           
1 53289U 22086AZ  25213.64494626  .00001614  00000+0  11949-3 0  9997
2 53289  53.2170  87.0867 0001509  87.5191 272.5974 15.08838388168035
STARLINK-4149           
1 53290U 22086BA  25214.06951565  .00004342  00000+0  29057-3 0  9996
2 53290  53.2168  90.0407 0001258  91.4251 268.6885 15.08856768168039
STARLINK-4166           
1 53291U 22086BB  25214.60538661  .00001014  00000+0  81779-4 0  9998
2 53291  53.2175  82.4173 0001322  89.7922 270.3221 15.08835873168027
STARLINK-4159           
1 53292U 22086BC  25214.08057380 -.00001065  00000+0 -48811-4 0  9993
2 53292  53.2172  90.1669 0001159  88.4810 271.6315 15.08840727168034
STARLINK-4148           
1 53293U 22086BD  25214.03362897 -.00000686  00000+0 -24994-4 0  9995
2 53293  53.2190  80.1834 0001598 100.9326 259.1846 15.08841366168161
STARLINK-4146           
1 53294U 22086BE  25214.64817298  .00000645  00000+0  58593-4 0  9998
2 53294  53.2172  77.2731 0001327  99.7821 260.3321 15.08835051168100
STARLINK-4522           
1 53388U 22097A   25214.46879024  .00001068  00000+0  85213-4 0  9998
2 53388  53.2204  28.2444 0001938 106.1116 254.0089 15.08839843165757
STARLINK-4523           
1 53389U 22097B   25214.46143080 -.00000928  00000+0 -40252-4 0  9995
2 53389  53.2177  28.2762 0000667  98.1820 261.9248 15.08843308165575
STARLINK-4517           
1 53390U 22097C   25213.86895214  .00001033  00000+0  82989-4 0  9992
2 53390  53.2197  30.9353 0001470  90.3870 269.7291 15.08832668164836
STARLINK-4521           
1 53391U 22097D   25214.85519424  .00000894  00000+0  74273-4 0  9990
2 53391  53.2185  26.5056 0001333 100.6742 259.4400 15.08836175164987
