[{"OBJECT_NAME":"STARLINK-4169","OBJECT_ID":"2022-086AQ","EPOCH":"2025-08-02T13:17:32.866368","MEAN_MOTION":15.08833769,"ECCENTRICITY":0.0001254,"INCLINATION":53.2178,"RA_OF_ASC_NODE":42.5351,"ARG_OF_PERICENTER":98.4555,"MEAN_ANOMALY":261.658,"EPHEMERIS_TYPE":0,"CLASSIFICATION_TYPE":"U","NORAD_CAT_ID":53280,"ELEMENT_SET_NO":999,"REV_AT_EPOCH":16875,"BSTAR":3.1261e-5,"MEAN_MOTION_DOT":2.1e-6,"MEAN_MOTION_DDOT":0},{"OBJECT_NAME":"STARLINK-4164","OBJECT_ID":"2022-086AS","EPOCH":"2025-08-01T02:26:24.321696","MEAN_MOTION":15.08838092,"ECCENTRICITY":0.00013,"INCLINATION":53.2174,"RA_OF_ASC_NODE":94.3775,"ARG_OF_PERICENTER":93.4813,"MEAN_ANOMALY":266.6328,"EPHEMERIS_TYPE":0,"CLASSIFICATION_TYPE":"U","NORAD_CAT_ID":53282,"ELEMENT_SET_NO":999,"REV_AT_EPOCH":16789,"BSTAR":-4.487e-5,"MEAN_MOTION_DOT":-1.002e-5,"MEAN_MOTION_DDOT":0},{"OBJECT_NAME":"STARLINK-4175","OBJECT_ID":"2022-086AT","EPOCH":"2025-07-31T21:24:20.776032","MEAN_MOTION":15.08850495,"ECCENTRICITY":0.0001552,"INCLINATION":53.2176,"RA_OF_ASC_NODE":95.3196,"ARG_OF_PERICENTER":91.7919,"MEAN_ANOMALY":268.3251,"EPHEMERIS_TYPE":0,"CLASSIFICATION_TYPE":"U","NORAD_CAT_ID":53283,"ELEMENT_SET_NO":999,"REV_AT_EPOCH":16769,"BSTAR":-0.00010338,"MEAN_MOTION_DOT":-1.933e-5,"MEAN_MOTION_DDOT":0},{"OBJECT_NAME":"STARLINK-4173","OBJECT_ID":"2022-086AV","EPOCH":"2025-08-02T01:45:23.584032","MEAN_MOTION":15.08838674,"ECCENTRICITY":0.0001551,"INCLINATION":53.2171,"RA_OF_ASC_NODE":90.0165,"ARG_OF_PERICENTER":94.6175,"MEAN_ANOMALY":265.4994,"EPHEMERIS_TYPE":0,"CLASSIFICATION_TYPE":"U","NORAD_CAT_ID":53285,"ELEMENT_SET_NO":999,"REV_AT_EPOCH":16803,"BSTAR":4.8821e-5,"MEAN_MOTION_DOT":4.89e-6,"MEAN_MOTION_DDOT":0},{"OBJECT_NAME":"STARLINK-4165","OBJECT_ID":"2022-086AW","EPOCH":"2025-08-02T01:13:32.987136","MEAN_MOTION":15.08837138,"ECCENTRICITY":0.0001349,"INCLINATION":53.2178,"RA_OF_ASC_NODE":89.8121,"ARG_OF_PERICENTER":103.3127,"MEAN_ANOMALY":256.8015,"EPHEMERIS_TYPE":0,"CLASSIFICATION_TYPE":"U","NORAD_CAT_ID":53286,"ELEMENT_SET_NO":999,"REV_AT_EPOCH":16803,"BSTAR":2.2379e-5,"MEAN_MOTION_DOT":6.8e-7,"MEAN_MOTION_DDOT":0},{"OBJECT_NAME":"STARLINK-4107","OBJECT_ID":"2022-086AX","EPOCH":"2025-08-01T01:44:00.540672","MEAN_MOTION":15.08841295,"ECCENTRICITY":0.0001451,"INCLINATION":53.2189,"RA_OF_ASC_NODE":94.5122,"ARG_OF_PERICENTER":101.9844,"MEAN_ANOMALY":258.1311,"EPHEMERIS_TYPE":0,"CLASSIFICATION_TYPE":"U","NORAD_CAT_ID":53287,"ELEMENT_SET_NO":999,"REV_AT_EPOCH":16772,"BSTAR":-4.7174e-5,"MEAN_MOTION_DOT":-1.039e-5,"MEAN_MOTION_DDOT":0},{"OBJECT_NAME":"STARLINK-4162","OBJECT_ID":"2022-086AY","EPOCH":"2025-08-02T01:50:41.671680","MEAN_MOTION":15.08836722,"ECCENTRICITY":0.0001381,"INCLINATION":53.2179,"RA_OF_ASC_NODE":89.9999,"ARG_OF_PERICENTER":95.8234,"MEAN_ANOMALY":264.2915,"EPHEMERIS_TYPE":0,"CLASSIFICATION_TYPE":"U","NORAD_CAT_ID":53288,"ELEMENT_SET_NO":999,"REV_AT_EPOCH":16803,"BSTAR":1.3192e-5,"MEAN_MOTION_DOT":-7.8e-7,"MEAN_MOTION_DDOT":0},{"OBJECT_NAME":"STARLINK-4176","OBJECT_ID":"2022-086AZ","EPOCH":"2025-08-01T15:28:43.356864","MEAN_MOTION":15.08838388,"ECCENTRICITY":0.0001509,"INCLINATION":53.217,"RA_OF_ASC_NODE":87.0867,"ARG_OF_PERICENTER":87.5191,"MEAN_ANOMALY":272.5974,"EPHEMERIS_TYPE":0,"CLASSIFICATION_TYPE":"U","NORAD_CAT_ID":53289,"ELEMENT_SET_NO":999,"REV_AT_EPOCH":16803,"BSTAR":0.00011949,"MEAN_MOTION_DOT":1.614e-5,"MEAN_MOTION_DDOT":0},{"OBJECT_NAME":"STARLINK-4149","OBJECT_ID":"2022-086BA","EPOCH":"2025-08-02T01:40:06.152160","MEAN_MOTION":15.08856768,"ECCENTRICITY":0.0001258,"INCLINATION":53.2168,"RA_OF_ASC_NODE":90.0407,"ARG_OF_PERICENTER":91.4251,"MEAN_ANOMALY":268.6885,"EPHEMERIS_TYPE":0,"CLASSIFICATION_TYPE":"U","NORAD_CAT_ID":53290,"ELEMENT_SET_NO":999,"REV_AT_EPOCH":16803,"BSTAR":0.00029057,"MEAN_MOTION_DOT":4.342e-5,"MEAN_MOTION_DDOT":0},{"OBJECT_NAME":"STARLINK-4166","OBJECT_ID":"2022-086BB","EPOCH":"2025-08-02T14:31:45.403104","MEAN_MOTION":15.08835873,"ECCENTRICITY":0.0001322,"INCLINATION":53.2175,"RA_OF_ASC_NODE":82.4173,"ARG_OF_PERICENTER":89.7922,"MEAN_ANOMALY":270.3221,"EPHEMERIS_TYPE":0,"CLASSIFICATION_TYPE":"U","NORAD_CAT_ID":53291,"ELEMENT_SET_NO":999,"REV_AT_EPOCH":16802,"BSTAR":8.1779e-5,"MEAN_MOTION_DOT":1.014e-5,"MEAN_MOTION_DDOT":0},{"OBJECT_NAME":"STARLINK-4159","OBJECT_ID":"2022-086BC","EPOCH":"2025-08-02T01:56:01.576320","MEAN_MOTION":15.08840727,"ECCENTRICITY":0.0001159,"INCLINATION":53.2172,"RA_OF_ASC_NODE":90.1669,"ARG_OF_PERICENTER":88.481,"MEAN_ANOMALY":271.6315,"EPHEMERIS_TYPE":0,"CLASSIFICATION_TYPE":"U","NORAD_CAT_ID":53292,"ELEMENT_SET_NO":999,"REV_AT_EPOCH":16803,"BSTAR":-4.8811e-5,"MEAN_MOTION_DOT":-1.065e-5,"MEAN_MOTION_DDOT":0},{"OBJECT_NAME":"STARLINK-4148","OBJECT_ID":"2022-086BD","EPOCH":"2025-08-02T00:48:25.543008","MEAN_MOTION":15.08841366,"ECCENTRICITY":0.0001598,"INCLINATION":53.219,"RA_OF_ASC_NODE":80.1834,"ARG_OF_PERICENTER":100.9326,"MEAN_ANOMALY":259.1846,"EPHEMERIS_TYPE":0,"CLASSIFICATION_TYPE":"U","NORAD_CAT_ID":53293,"ELEMENT_SET_NO":999,"REV_AT_EPOCH":16816,"BSTAR":-2.4994e-5,"MEAN_MOTION_DOT":-6.86e-6,"MEAN_MOTION_DDOT":0},{"OBJECT_NAME":"STARLINK-4146","OBJECT_ID":"2022-086BE","EPOCH":"2025-08-02T15:33:22.145472","MEAN_MOTION":15.08835051,"ECCENTRICITY":0.0001327,"INCLINATION":53.2172,"RA_OF_ASC_NODE":77.2731,"ARG_OF_PERICENTER":99.7821,"MEAN_ANOMALY":260.3321,"EPHEMERIS_TYPE":0,"CLASSIFICATION_TYPE":"U","NORAD_CAT_ID":53294,"ELEMENT_SET_NO":999,"REV_AT_EPOCH":16810,"BSTAR":5.8593e-5,"MEAN_MOTION_DOT":6.45e-6,"MEAN_MOTION_DDOT":0},{"OBJECT_NAME":"STARLINK-4522","OBJECT_ID":"2022-097A","EPOCH":"2025-08-02T11:15:03.476736","MEAN_MOTION":15.08839843,"ECCENTRICITY":0.0001938,"INCLINATION":53.2204,"RA_OF_ASC_NODE":28.2444,"ARG_OF_PERICENTER":106.1116,"MEAN_ANOMALY":254.0089,"EPHEMERIS_TYPE":0,"CLASSIFICATION_TYPE":"U","NORAD_CAT_ID":53388,"ELEMENT_SET_NO":999,"REV_AT_EPOCH":16575,"BSTAR":8.5213e-5,"MEAN_MOTION_DOT":1.068e-5,"MEAN_MOTION_DDOT":0},{"OBJECT_NAME":"STARLINK-4523","OBJECT_ID":"2022-097B","EPOCH":"2025-08-02T11:04:27.621120","MEAN_MOTION":15.08843308,"ECCENTRICITY":6.67e-5,"INCLINATION":53.2177,"RA_OF_ASC_NODE":28.2762,"ARG_OF_PERICENTER":98.182,"MEAN_ANOMALY":261.9248,"EPHEMERIS_TYPE":0,"CLASSIFICATION_TYPE":"U","NORAD_CAT_ID":53389,"ELEMENT_SET_NO":999,"REV_AT_EPOCH":16557,"BSTAR":-4.0252e-5,"MEAN_MOTION_DOT":-9.28e-6,"MEAN_MOTION_DDOT":0},{"OBJECT_NAME":"STARLINK-4517","OBJECT_ID":"2022-097C","EPOCH":"2025-08-01T20:51:17.464896","MEAN_MOTION":15.08832668,"ECCENTRICITY":0.000147,"INCLINATION":53.2197,"RA_OF_ASC_NODE":30.9353,"ARG_OF_PERICENTER":90.387,"MEAN_ANOMALY":269.7291,"EPHEMERIS_TYPE":0,"CLASSIFICATION_TYPE":"U","NORAD_CAT_ID":53390,"ELEMENT_SET_NO":999,"REV_AT_EPOCH":16483,"BSTAR":8.2989e-5,"MEAN_MOTION_DOT":1.033e-5,"MEAN_MOTION_DDOT":0},{"OBJECT_NAME":"STARLINK-4521","OBJECT_ID":"2022-097D","EPOCH":"2025-08-02T20:31:28.782336","MEAN_MOTION":15.08836175,"ECCENTRICITY":0.0001333,"INCLINATION":53.2185,"RA_OF_ASC_NODE":26.5056,"ARG_OF_PERICENTER":100.6742,"MEAN_ANOMALY":259.44,"EPHEMERIS_TYPE":0,"CLASSIFICATION_TYPE":"U","NORAD_CAT_ID":53391,"ELEMENT_SET_NO":999,"REV_AT_EPOCH":16498,"BSTAR":7.4273e-5,"MEAN_MOTION_DOT":8.94e-6,"MEAN_MOTION_DDOT":0}]
